{"type": "FeatureCollection", "features": [{"type": "Feature", "properties": {"place_id": 82063612, "osm_type": "relation", "osm_id": 42548, "place_rank": 16, "category": "boundary", "type": "administrative", "importance": 0.4981137988174741, "addresstype": "town", "name": "Cascina", "display_name": "Cascina, Pisa, Toscana, Italia"}, "bbox": [10.4091517, 43.6175343, 10.5785065, 43.7221905], "geometry": {"type": "Polygon", "coordinates": [[[10.4091517, 43.6202901], [10.4104146, 43.6186315], [10.41125, 43.6175343], [10.4154672, 43.6206682], [10.4162833, 43.6212499], [10.4171813, 43.621955], [10.4252758, 43.6279611], [10.4299282, 43.6314381], [10.4300923, 43.6315607], [10.4303228, 43.6316104], [10.4322663, 43.6325506], [10.4341007, 43.6334527], [10.4358842, 43.633765], [10.4393382, 43.6343699], [10.4435347, 43.6346331], [10.4551803, 43.6343167], [10.4553267, 43.6343127], [10.4562926, 43.6344259], [10.4575247, 43.6344346], [10.4703596, 43.6343062], [10.4769216, 43.634232], [10.4770412, 43.6342591], [10.4771085, 43.6338804], [10.4786035, 43.6331717], [10.478895, 43.6329498], [10.4792762, 43.6327497], [10.4803153, 43.6323818], [10.4809357, 43.6321383], [10.4830772, 43.6314296], [10.484576, 43.6317812], [10.4850095, 43.6319273], [10.4867661, 43.6322411], [10.4876678, 43.6323698], [10.488575, 43.6325224], [10.4890237, 43.6325294], [10.4890775, 43.6326396], [10.4894951, 43.6339657], [10.4894925, 43.6340153], [10.4944144, 43.63341], [10.4942933, 43.6330797], [10.4956515, 43.6326855], [10.4962374, 43.6324435], [10.4965138, 43.6323564], [10.4967352, 43.6323324], [10.4970711, 43.6323037], [10.4971635, 43.6322855], [10.4975823, 43.6322032], [10.4979342, 43.6321734], [10.4980798, 43.6320693], [10.4990212, 43.6308831], [10.5011516, 43.628439], [10.5081218, 43.6291319], [10.5125541, 43.6295104], [10.515489, 43.6297851], [10.5266567, 43.6310333], [10.5271288, 43.6309098], [10.5276487, 43.6307488], [10.529831, 43.6307162], [10.5317192, 43.6308094], [10.5325346, 43.6308249], [10.5361181, 43.6304367], [10.5499583, 43.6288369], [10.5574105, 43.6279066], [10.5577967, 43.6277978], [10.5583655, 43.6274164], [10.5594207, 43.6288205], [10.5701399, 43.6414945], [10.5710359, 43.6426137], [10.5710681, 43.6426506], [10.5711164, 43.6426758], [10.571162, 43.6426874], [10.5723904, 43.6428], [10.5724629, 43.6428], [10.5728384, 43.6427612], [10.5738388, 43.6424856], [10.5740373, 43.6424293], [10.5741017, 43.6424176], [10.5741634, 43.6424176], [10.574209, 43.6424254], [10.5742358, 43.6424409], [10.5742653, 43.6424817], [10.5745094, 43.6430485], [10.5750914, 43.6441723], [10.575446, 43.6446948], [10.5761332, 43.6463849], [10.5765271, 43.6474436], [10.5765346, 43.647555], [10.5766338, 43.6477491], [10.5772346, 43.6488088], [10.5772507, 43.6489175], [10.5772561, 43.6489776], [10.5772802, 43.6490514], [10.5778914, 43.6500434], [10.5775167, 43.6501983], [10.577535, 43.6502915], [10.5777818, 43.6507457], [10.5778837, 43.6509339], [10.5778998, 43.6510834], [10.5778891, 43.6512037], [10.5778489, 43.6513648], [10.5778355, 43.6515705], [10.5778891, 43.652077], [10.577873, 43.6521682], [10.577822, 43.6523079], [10.5777523, 43.6524729], [10.5777389, 43.6525544], [10.5777496, 43.652828], [10.5777791, 43.6530551], [10.5777791, 43.6531677], [10.5777335, 43.6532608], [10.5776772, 43.6533423], [10.5775672, 43.6535034], [10.5774921, 43.65381], [10.5774331, 43.6549084], [10.5774385, 43.6550908], [10.5776101, 43.6559292], [10.5779492, 43.6574428], [10.5783483, 43.6589313], [10.5785065, 43.659723], [10.5784985, 43.6597502], [10.5784931, 43.6597657], [10.578477, 43.6597773], [10.5759263, 43.6606408], [10.575717, 43.6607107], [10.575639, 43.6607537], [10.5755719, 43.6608022], [10.5755022, 43.6608604], [10.5754703, 43.660897], [10.5754354, 43.6609377], [10.5753979, 43.6610211], [10.5750438, 43.6618536], [10.5747485, 43.6625466], [10.5742681, 43.663321], [10.5741506, 43.6635339], [10.5738764, 43.6640073], [10.5738344, 43.6640792], [10.5732947, 43.6649486], [10.5732923, 43.6649523], [10.573244, 43.6650086], [10.5731341, 43.6651269], [10.5731186, 43.6651543], [10.5730793, 43.6652055], [10.5730455, 43.6652596], [10.572994, 43.66534], [10.5727693, 43.6656818], [10.572667, 43.6658251], [10.5725791, 43.6659904], [10.5723965, 43.6665045], [10.5723536, 43.6665743], [10.5723131, 43.6665882], [10.5722405, 43.6665867], [10.5721555, 43.6666], [10.5721088, 43.666607], [10.5720723, 43.6666139], [10.5719915, 43.6666694], [10.571943, 43.666697], [10.5719239, 43.6667181], [10.5717069, 43.6671774], [10.571429, 43.6677666], [10.5710961, 43.6684459], [10.570744, 43.6690383], [10.5696813, 43.6689477], [10.5695387, 43.6693243], [10.5696809, 43.6694], [10.5698016, 43.6695047], [10.5698767, 43.6696037], [10.569933, 43.6697375], [10.5699464, 43.669854], [10.569942, 43.6699787], [10.5699044, 43.6701358], [10.5697935, 43.6704146], [10.5696818, 43.670683], [10.5696335, 43.6707334], [10.5695209, 43.6708188], [10.5694565, 43.6708905], [10.5694243, 43.6709623], [10.5693885, 43.6710549], [10.5693912, 43.671181], [10.5693965, 43.6712392], [10.5693868, 43.6713077], [10.5692741, 43.6715715], [10.5690671, 43.671969], [10.5685471, 43.6724001], [10.5679606, 43.6728768], [10.5677694, 43.6733041], [10.5673369, 43.6743644], [10.5671257, 43.6746552], [10.5667415, 43.6751841], [10.5674497, 43.6754598], [10.5673378, 43.6755545], [10.5668873, 43.6762862], [10.5656974, 43.6772279], [10.564449, 43.6785374], [10.5633666, 43.6794979], [10.5631263, 43.6798183], [10.5624015, 43.6803674], [10.5617896, 43.6809792], [10.5613675, 43.6812619], [10.5606355, 43.6817829], [10.559882, 43.6821712], [10.5592221, 43.6825317], [10.5583736, 43.6830108], [10.5577978, 43.6832331], [10.5570457, 43.6835285], [10.5554305, 43.6837372], [10.5526459, 43.6835967], [10.5523766, 43.6836114], [10.5505878, 43.6837215], [10.5483967, 43.6835185], [10.5470652, 43.6833846], [10.5465508, 43.6833059], [10.5456495, 43.6831042], [10.5447408, 43.6830058], [10.5432627, 43.6829651], [10.5421232, 43.6828735], [10.5407165, 43.6826467], [10.5397226, 43.6824584], [10.5376743, 43.6821153], [10.5371739, 43.6820391], [10.53663, 43.6819561], [10.5361853, 43.6819205], [10.5345579, 43.6817501], [10.5339964, 43.6817686], [10.533192, 43.6818791], [10.5326599, 43.6819682], [10.5320901, 43.6820782], [10.5314911, 43.682231], [10.530404, 43.6825218], [10.5298759, 43.6827391], [10.5294665, 43.6829084], [10.529273, 43.6831129], [10.5289203, 43.6833587], [10.5286719, 43.6837098], [10.5284065, 43.6842689], [10.5279086, 43.6852641], [10.5273754, 43.6861913], [10.5267762, 43.6874979], [10.5263799, 43.6886378], [10.5263872, 43.6886631], [10.5261596, 43.6893308], [10.5258601, 43.6897425], [10.5255463, 43.6901734], [10.5254432, 43.6903294], [10.5251586, 43.6906203], [10.524949, 43.6907403], [10.524786, 43.6909144], [10.5243585, 43.6911833], [10.5237626, 43.6914776], [10.523025, 43.691782], [10.5218114, 43.6923867], [10.521571, 43.6924637], [10.5204618, 43.6928191], [10.5175862, 43.6936779], [10.5163365, 43.6939421], [10.5146875, 43.6942921], [10.5127376, 43.6946406], [10.5117314, 43.6948188], [10.5108184, 43.6950066], [10.5098579, 43.6951923], [10.5091034, 43.6953726], [10.5088595, 43.6954372], [10.5085543, 43.6955167], [10.507744, 43.6958209], [10.5071082, 43.6961244], [10.5065067, 43.6963852], [10.5055745, 43.6968198], [10.5042145, 43.6975068], [10.5036539, 43.6978328], [10.5029879, 43.6980701], [10.502558, 43.6983345], [10.5021785, 43.6985465], [10.5020709, 43.698703], [10.5018579, 43.6988495], [10.5014927, 43.6991048], [10.5010993, 43.6994937], [10.500704, 43.7001174], [10.5003295, 43.7006043], [10.5002439, 43.7009037], [10.5002238, 43.7012188], [10.5001764, 43.701346], [10.5001224, 43.7016275], [10.5001194, 43.7018013], [10.5001168, 43.7020843], [10.5001206, 43.7022575], [10.5001271, 43.702654], [10.500242, 43.7033484], [10.5003445, 43.7036972], [10.500392, 43.7039818], [10.5005649, 43.7045941], [10.5007415, 43.7050305], [10.5008396, 43.7052731], [10.5009603, 43.7055714], [10.5010062, 43.7057176], [10.501014, 43.7058417], [10.5010208, 43.7059484], [10.5010292, 43.7060825], [10.501037, 43.7062055], [10.5010191, 43.7063852], [10.5009938, 43.7066383], [10.5008866, 43.7072108], [10.5007625, 43.7076267], [10.5005335, 43.708063], [10.5002675, 43.7086872], [10.500073, 43.7091309], [10.4999917, 43.7092998], [10.4998386, 43.7095401], [10.4995906, 43.7100235], [10.499498, 43.7101354], [10.4993622, 43.7102574], [10.4991171, 43.7104775], [10.4990472, 43.710577], [10.4986488, 43.7110084], [10.4981445, 43.7116265], [10.4978197, 43.7118981], [10.4975454, 43.7121158], [10.496899, 43.7126199], [10.4964222, 43.7128884], [10.4957943, 43.7132206], [10.4951237, 43.7135116], [10.4947496, 43.7136426], [10.4943958, 43.7136928], [10.4940004, 43.7136988], [10.4936469, 43.7136858], [10.4933557, 43.7136306], [10.4928439, 43.7134681], [10.4923595, 43.7132471], [10.4918424, 43.7129293], [10.4913942, 43.7126666], [10.4910408, 43.7124207], [10.4909979, 43.7123909], [10.490602, 43.7120912], [10.4901133, 43.7117233], [10.4895208, 43.7112361], [10.4890728, 43.7108626], [10.4885691, 43.710423], [10.4881544, 43.7099515], [10.4876634, 43.7093523], [10.4872396, 43.7088861], [10.4869898, 43.7086105], [10.4860309, 43.7073908], [10.4844453, 43.7053847], [10.4836375, 43.7043186], [10.4825971, 43.7029455], [10.481839, 43.7018617], [10.4810258, 43.700777], [10.4807276, 43.7004261], [10.4804871, 43.7001938], [10.4800081, 43.6998381], [10.4791489, 43.699219], [10.4785196, 43.698858], [10.47783, 43.6985698], [10.4770444, 43.698333], [10.4762405, 43.6981407], [10.4753743, 43.6980335], [10.4748477, 43.6980556], [10.4742645, 43.6980868], [10.4739918, 43.698098], [10.4734966, 43.6981588], [10.4729468, 43.6982103], [10.4721835, 43.6984256], [10.4714877, 43.6986721], [10.470477, 43.6990864], [10.4699992, 43.6994548], [10.469554, 43.6999706], [10.4689976, 43.700674], [10.4689831, 43.7006954], [10.4687249, 43.7011282], [10.4687132, 43.7011489], [10.4685135, 43.7016526], [10.4685061, 43.701673], [10.4683415, 43.7023386], [10.4682071, 43.7029166], [10.4682031, 43.702937], [10.4680874, 43.7035395], [10.4680844, 43.7035586], [10.4680397, 43.7041882], [10.4681045, 43.7060237], [10.4681537, 43.7065885], [10.4681388, 43.7069047], [10.4682653, 43.7073827], [10.468394, 43.7077364], [10.4686023, 43.7080836], [10.468774, 43.7085427], [10.4690315, 43.7090328], [10.4693748, 43.7096781], [10.4697868, 43.7103047], [10.4700185, 43.7108073], [10.470173, 43.7112167], [10.4702417, 43.7117193], [10.4703619, 43.7122342], [10.4705163, 43.7128484], [10.4706108, 43.7133447], [10.4707138, 43.7138348], [10.4705421, 43.7154726], [10.4701988, 43.7164156], [10.4698211, 43.7170173], [10.4697725, 43.7172239], [10.4694005, 43.7176625], [10.4690229, 43.7181401], [10.4685079, 43.718562], [10.4684732, 43.7186554], [10.4677869, 43.7192567], [10.467066, 43.7197096], [10.4662162, 43.7202927], [10.4654953, 43.7207269], [10.4648515, 43.7210122], [10.4638731, 43.7213968], [10.4629375, 43.7216325], [10.4621221, 43.7218124], [10.4614011, 43.7219799], [10.4603025, 43.7221536], [10.4594099, 43.722166], [10.458289, 43.7221905], [10.4559337, 43.7219241], [10.4549123, 43.7218], [10.4536456, 43.7216074], [10.4529761, 43.7215081], [10.452444, 43.7212972], [10.4499291, 43.7201434], [10.4494571, 43.7199759], [10.4488133, 43.7196472], [10.448106, 43.7192071], [10.4474365, 43.7187481], [10.4470417, 43.7183138], [10.4467034, 43.7178653], [10.4462496, 43.7172581], [10.4460663, 43.7165472], [10.4456836, 43.7151529], [10.4455535, 43.7145891], [10.4454201, 43.7140809], [10.4452295, 43.7130602], [10.4451597, 43.7120001], [10.4453076, 43.7107288], [10.4453643, 43.7105393], [10.4455591, 43.7097845], [10.4457181, 43.7091629], [10.4459095, 43.7087145], [10.4463225, 43.7077044], [10.4465238, 43.7070597], [10.4471308, 43.7055322], [10.4473538, 43.7049739], [10.4474204, 43.7047055], [10.4475145, 43.7042692], [10.4477243, 43.7033137], [10.4477566, 43.7031677], [10.4495209, 43.7032485], [10.4499693, 43.7031478], [10.4504269, 43.7030463], [10.4503763, 43.7029113], [10.4502815, 43.7027567], [10.4508425, 43.7025063], [10.4513259, 43.7022902], [10.4518714, 43.7020451], [10.4523859, 43.7018155], [10.4525716, 43.7018313], [10.4526577, 43.7019527], [10.4527631, 43.7020981], [10.4530821, 43.701978], [10.4544601, 43.7014483], [10.4556945, 43.700982], [10.4562309, 43.7009029], [10.4562831, 43.7008968], [10.4559314, 43.7004371], [10.4556828, 43.7001031], [10.4554182, 43.6997539], [10.455305, 43.6996148], [10.4552061, 43.6994946], [10.4548406, 43.6990535], [10.4544704, 43.6986128], [10.4540694, 43.6981574], [10.4536141, 43.6975486], [10.4532445, 43.6970273], [10.4532379, 43.6969199], [10.4532468, 43.6968452], [10.4535762, 43.6966434], [10.4539127, 43.6964297], [10.4541667, 43.6962166], [10.4542356, 43.6961631], [10.4545978, 43.6959404], [10.4550987, 43.6956378], [10.455215, 43.6955276], [10.4552461, 43.6953497], [10.4552442, 43.6948524], [10.4552451, 43.6945837], [10.4552719, 43.693889], [10.4552649, 43.6934768], [10.455111, 43.6930253], [10.4550911, 43.6930053], [10.4550749, 43.6929848], [10.4550233, 43.6929326], [10.4547871, 43.6925912], [10.4542274, 43.6917867], [10.4541568, 43.691726], [10.4541388, 43.691707], [10.4538459, 43.6913267], [10.4539039, 43.6912646], [10.4529418, 43.6899595], [10.4528329, 43.6899749], [10.4516917, 43.6884109], [10.4507227, 43.6870742], [10.4488534, 43.684498], [10.4482529, 43.6836643], [10.4473103, 43.6823776], [10.446059, 43.68066], [10.4453521, 43.6796655], [10.4446741, 43.6787159], [10.44416, 43.6779941], [10.4437593, 43.6773397], [10.4419294, 43.6743793], [10.4413196, 43.6733668], [10.44151, 43.6732813], [10.4419119, 43.6730935], [10.4424764, 43.6728126], [10.4425155, 43.6727618], [10.4425457, 43.6727133], [10.4425482, 43.6725182], [10.4425091, 43.6721117], [10.4423025, 43.6713862], [10.4413872, 43.6693331], [10.4412623, 43.6690311], [10.441052, 43.6685954], [10.4406697, 43.6677829], [10.4403925, 43.6673964], [10.439018, 43.6649822], [10.4388947, 43.6647774], [10.4388292, 43.6646619], [10.4386423, 43.6643461], [10.4384565, 43.6640191], [10.4383647, 43.6637194], [10.437866, 43.6620165], [10.4386145, 43.6608359], [10.4387963, 43.6605499], [10.4389355, 43.6603312], [10.4388965, 43.6602681], [10.4385796, 43.6600332], [10.4383596, 43.6592388], [10.4382848, 43.6589478], [10.438101, 43.658254], [10.4381414, 43.657714], [10.4391374, 43.6552521], [10.440231, 43.6523989], [10.440876, 43.6507153], [10.4392269, 43.6494706], [10.4379895, 43.6485699], [10.4379131, 43.6486917], [10.4314444, 43.6437761], [10.4303031, 43.6429094], [10.4288112, 43.6417823], [10.4255399, 43.6393055], [10.4195951, 43.6347976], [10.4157458, 43.6318749], [10.4156659, 43.631514], [10.4135174, 43.629944], [10.4132884, 43.6297651], [10.4130301, 43.6295593], [10.4126042, 43.6292324], [10.4124102, 43.6291179], [10.4120724, 43.6290777], [10.4115664, 43.6291088], [10.4113239, 43.6276183], [10.4110467, 43.6259455], [10.4109333, 43.6252194], [10.41083, 43.6245645], [10.4106737, 43.6236067], [10.4103757, 43.6216995], [10.4091517, 43.6202901]]]}}]}